[
  {
    "tmk": 41003019,
    "description": "OSDS",
    "location": "Waimanalo",
    "housePrfx": "",
    "houseNumbr": "",
    "houseSuffx": "",
    "streetName": "",
    "city": "Waimanalo",
    "zipCode": 96795
  },
  {
    "tmk": 41003020,
    "description": "OSDS",
    "location": "Waimanalo",
    "housePrfx": "",
    "houseNumbr": "",
    "houseSuffx": "",
    "streetName": "",
    "city": "Waimanalo",
    "zipCode": 96795
  },
  {
    "tmk": 41003039,
    "description": "OSDS",
    "location": "Waimanalo",
    "housePrfx": 41,
    "houseNumbr": 575,
    "houseSuffx": "",
    "streetName": "Kalanianaole Hwy",
    "city": "Waimanalo",
    "zipCode": 96795
  },
  {
    "tmk": 41003040,
    "description": "OSDS",
    "location": "Waimanalo",
    "housePrfx": 41,
    "houseNumbr": 741,
    "houseSuffx": "",
    "streetName": "Kalanianaole Hwy",
    "city": "Waimanalo",
    "zipCode": 96795
  },
  {
    "tmk": 41008046,
    "description": "OSDS",
    "location": "Waimanalo",
    "housePrfx": "",
    "houseNumbr": "",
    "houseSuffx": "",
    "streetName": "",
    "city": "Waimanalo",
    "zipCode": 96795
  },
  {
    "tmk": 41008076,
    "description": "OSDS",
    "location": "Waimanalo",
    "housePrfx": 41,
    "houseNumbr": 131,
    "houseSuffx": "",
    "streetName": "Kulaiwi St",
    "city": "Waimanalo",
    "zipCode": 96795
  },
  {
    "tmk": 41014007,
    "description": "OSDS",
    "location": "Waimanalo",
    "housePrfx": 41,
    "houseNumbr": 450,
    "houseSuffx": "",
    "streetName": "Kalanianaole Hwy",
    "city": "Waimanalo",
    "zipCode": 96795
  },
  {
    "tmk": 41016001,
    "description": "OSDS",
    "location": "Waimanalo",
    "housePrfx": 41,
    "houseNumbr": 648,
    "houseSuffx": "",
    "streetName": "Kalanianaole Hwy",
    "city": "Waimanalo",
    "zipCode": 96795
  },
  {
    "tmk": 41016002,
    "description": "OSDS",
    "location": "Waimanalo",
    "housePrfx": 41,
    "houseNumbr": 654,
    "houseSuffx": "",
    "streetName": "Kalanianaole Hwy",
    "city": "Waimanalo",
    "zipCode": 96795
  },
  {
    "tmk": 41016003,
    "description": "OSDS",
    "location": "Waimanalo",
    "housePrfx": 41,
    "houseNumbr": 658,
    "houseSuffx": "",
    "streetName": "Kalanianaole Hwy",
    "city": "Waimanalo",
    "zipCode": 96795
  },
  {
    "tmk": 41016004,
    "description": "OSDS",
    "location": "Waimanalo",
    "housePrfx": 41,
    "houseNumbr": 664,
    "houseSuffx": "",
    "streetName": "Kalanianaole Hwy",
    "city": "Waimanalo",
    "zipCode": 96795
  },
  {
    "tmk": 41016005,
    "description": "OSDS",
    "location": "Waimanalo",
    "housePrfx": 41,
    "houseNumbr": 668,
    "houseSuffx": "",
    "streetName": "Kalanianaole Hwy",
    "city": "Waimanalo",
    "zipCode": 96795
  },
  {
    "tmk": 41016018,
    "description": "OSDS",
    "location": "Waimanalo",
    "housePrfx": 41,
    "houseNumbr": 738,
    "houseSuffx": "",
    "streetName": "Kalanianaole Hwy",
    "city": "Waimanalo",
    "zipCode": 96795
  },
  {
    "tmk": 41016041,
    "description": "OSDS",
    "location": "Waimanalo",
    "housePrfx": 41,
    "houseNumbr": 695,
    "houseSuffx": "",
    "streetName": "Ala Koa St",
    "city": "Waimanalo",
    "zipCode": 96795
  },
  {
    "tmk": 41016042,
    "description": "OSDS",
    "location": "Waimanalo",
    "housePrfx": 41,
    "houseNumbr": 689,
    "houseSuffx": "",
    "streetName": "Ala Koa St",
    "city": "Waimanalo",
    "zipCode": 96795
  },
  {
    "tmk": 41016043,
    "description": "OSDS",
    "location": "Waimanalo",
    "housePrfx": 41,
    "houseNumbr": 685,
    "houseSuffx": "",
    "streetName": "Ala Koa St",
    "city": "Waimanalo",
    "zipCode": 96795
  },
  {
    "tmk": 41016044,
    "description": "OSDS",
    "location": "Waimanalo",
    "housePrfx": 41,
    "houseNumbr": 681,
    "houseSuffx": "",
    "streetName": "Ala Koa St",
    "city": "Waimanalo",
    "zipCode": 96795
  },
  {
    "tmk": 41016045,
    "description": "OSDS",
    "location": "Waimanalo",
    "housePrfx": 41,
    "houseNumbr": 675,
    "houseSuffx": "",
    "streetName": "Ala Koa St",
    "city": "Waimanalo",
    "zipCode": 96795
  },
  {
    "tmk": 41016046,
    "description": "OSDS",
    "location": "Waimanalo",
    "housePrfx": 41,
    "houseNumbr": 676,
    "houseSuffx": "",
    "streetName": "Ala Koa St",
    "city": "Waimanalo",
    "zipCode": 96795
  },
  {
    "tmk": 41016047,
    "description": "OSDS",
    "location": "Waimanalo",
    "housePrfx": 41,
    "houseNumbr": 680,
    "houseSuffx": "",
    "streetName": "Ala Koa St",
    "city": "Waimanalo",
    "zipCode": 96795
  },
  {
    "tmk": 41016048,
    "description": "OSDS",
    "location": "Waimanalo",
    "housePrfx": 41,
    "houseNumbr": 686,
    "houseSuffx": "",
    "streetName": "Ala Koa St",
    "city": "Waimanalo",
    "zipCode": 96795
  },
  {
    "tmk": 41016049,
    "description": "OSDS",
    "location": "Waimanalo",
    "housePrfx": 41,
    "houseNumbr": 660,
    "houseSuffx": "",
    "streetName": "Bell St",
    "city": "Waimanalo",
    "zipCode": 96795
  },
  {
    "tmk": 41016060,
    "description": "OSDS",
    "location": "Waimanalo",
    "housePrfx": 41,
    "houseNumbr": 717,
    "houseSuffx": "",
    "streetName": "Bell St",
    "city": "Waimanalo",
    "zipCode": 96795
  },
  {
    "tmk": 41016064,
    "description": "OSDS",
    "location": "Waimanalo",
    "housePrfx": 41,
    "houseNumbr": 728,
    "houseSuffx": "",
    "streetName": "Ala Koa St",
    "city": "Waimanalo",
    "zipCode": 96795
  },
  {
    "tmk": 41016066,
    "description": "OSDS",
    "location": "Waimanalo",
    "housePrfx": 41,
    "houseNumbr": 687,
    "houseSuffx": "",
    "streetName": "Bell St",
    "city": "Waimanalo",
    "zipCode": 96795
  },
  {
    "tmk": 41016067,
    "description": "OSDS",
    "location": "Waimanalo",
    "housePrfx": 41,
    "houseNumbr": 716,
    "houseSuffx": "",
    "streetName": "Ala Koa St",
    "city": "Waimanalo",
    "zipCode": 96795
  },
  {
    "tmk": 41016071,
    "description": "OSDS",
    "location": "Waimanalo",
    "housePrfx": 41,
    "houseNumbr": 128,
    "houseSuffx": "",
    "streetName": "Nalu St",
    "city": "Waimanalo",
    "zipCode": 96795
  },
  {
    "tmk": 41016072,
    "description": "OSDS",
    "location": "Waimanalo",
    "housePrfx": 41,
    "houseNumbr": 692,
    "houseSuffx": "",
    "streetName": "Ala Koa St",
    "city": "Waimanalo",
    "zipCode": 96795
  },
  {
    "tmk": 41016074,
    "description": "OSDS",
    "location": "Waimanalo",
    "housePrfx": 41,
    "houseNumbr": 658,
    "houseSuffx": "",
    "streetName": "Bell St",
    "city": "Waimanalo",
    "zipCode": 96795
  },
  {
    "tmk": 41016075,
    "description": "OSDS",
    "location": "Waimanalo",
    "housePrfx": 41,
    "houseNumbr": 143,
    "houseSuffx": "",
    "streetName": "Makaainana St",
    "city": "Waimanalo",
    "zipCode": 96795
  },
  {
    "tmk": 41016076,
    "description": "OSDS",
    "location": "Waimanalo",
    "housePrfx": 41,
    "houseNumbr": 673,
    "houseSuffx": "",
    "streetName": "Ala Koa St",
    "city": "Waimanalo",
    "zipCode": 96795
  },
  {
    "tmk": 41016077,
    "description": "OSDS",
    "location": "Waimanalo",
    "housePrfx": 41,
    "houseNumbr": 669,
    "houseSuffx": "",
    "streetName": "Ala Koa St",
    "city": "Waimanalo",
    "zipCode": 96795
  },
  {
    "tmk": 41016078,
    "description": "OSDS",
    "location": "Waimanalo",
    "housePrfx": 41,
    "houseNumbr": 665,
    "houseSuffx": "",
    "streetName": "Ala Koa St",
    "city": "Waimanalo",
    "zipCode": 96795
  },
  {
    "tmk": 41016079,
    "description": "OSDS",
    "location": "Waimanalo",
    "housePrfx": 41,
    "houseNumbr": 629,
    "houseSuffx": "",
    "streetName": "Bell St",
    "city": "Waimanalo",
    "zipCode": 96795
  },
  {
    "tmk": 41016080,
    "description": "OSDS",
    "location": "Waimanalo",
    "housePrfx": 41,
    "houseNumbr": 621,
    "houseSuffx": "",
    "streetName": "Bell St",
    "city": "Waimanalo",
    "zipCode": 96795
  },
  {
    "tmk": 41016081,
    "description": "OSDS",
    "location": "Waimanalo",
    "housePrfx": 41,
    "houseNumbr": 626,
    "houseSuffx": "",
    "streetName": "Kalanianaole Hwy",
    "city": "Waimanalo",
    "zipCode": 96795
  },
  {
    "tmk": 41016082,
    "description": "OSDS",
    "location": "Waimanalo",
    "housePrfx": 41,
    "houseNumbr": 624,
    "houseSuffx": "",
    "streetName": "Kalanianaole Hwy",
    "city": "Waimanalo",
    "zipCode": 96795
  },
  {
    "tmk": 41016083,
    "description": "OSDS",
    "location": "Waimanalo",
    "housePrfx": 41,
    "houseNumbr": 620,
    "houseSuffx": "",
    "streetName": "Kalanianaole Hwy",
    "city": "Waimanalo",
    "zipCode": 96795
  },
  {
    "tmk": 41016084,
    "description": "OSDS",
    "location": "Waimanalo",
    "housePrfx": 41,
    "houseNumbr": 630,
    "houseSuffx": "",
    "streetName": "Kalanianaole Hwy",
    "city": "Waimanalo",
    "zipCode": 96795
  },
  {
    "tmk": 41016085,
    "description": "OSDS",
    "location": "Waimanalo",
    "housePrfx": 41,
    "houseNumbr": 634,
    "houseSuffx": "",
    "streetName": "Kalanianaole Hwy",
    "city": "Waimanalo",
    "zipCode": 96795
  },
  {
    "tmk": 41016086,
    "description": "OSDS",
    "location": "Waimanalo",
    "housePrfx": 41,
    "houseNumbr": 638,
    "houseSuffx": "",
    "streetName": "Kalanianaole Hwy",
    "city": "Waimanalo",
    "zipCode": 96795
  },
  {
    "tmk": 41016087,
    "description": "OSDS",
    "location": "Waimanalo",
    "housePrfx": 41,
    "houseNumbr": 642,
    "houseSuffx": "",
    "streetName": "Kalanianaole Hwy",
    "city": "Waimanalo",
    "zipCode": 96795
  },
  {
    "tmk": 41016088,
    "description": "OSDS",
    "location": "Waimanalo",
    "housePrfx": 41,
    "houseNumbr": 646,
    "houseSuffx": "",
    "streetName": "Kalanianaole Hwy",
    "city": "Waimanalo",
    "zipCode": 96795
  },
  {
    "tmk": 41016094,
    "description": "OSDS",
    "location": "Waimanalo",
    "housePrfx": 41,
    "houseNumbr": 124,
    "houseSuffx": "",
    "streetName": "Nalu St",
    "city": "Waimanalo",
    "zipCode": 96795
  },
  {
    "tmk": 41016095,
    "description": "OSDS",
    "location": "Waimanalo",
    "housePrfx": 41,
    "houseNumbr": 657,
    "houseSuffx": "",
    "streetName": "Bell St",
    "city": "Waimanalo",
    "zipCode": 96795
  },
  {
    "tmk": 41016097,
    "description": "OSDS",
    "location": "Waimanalo",
    "housePrfx": 41,
    "houseNumbr": 663,
    "houseSuffx": "",
    "streetName": "Bell St",
    "city": "Waimanalo",
    "zipCode": 96795
  },
  {
    "tmk": 41016106,
    "description": "OSDS",
    "location": "Waimanalo",
    "housePrfx": "",
    "houseNumbr": "",
    "houseSuffx": "",
    "streetName": "",
    "city": "Waimanalo",
    "zipCode": 96795
  },
  {
    "tmk": 41016109,
    "description": "OSDS",
    "location": "Waimanalo",
    "housePrfx": 41,
    "houseNumbr": 677,
    "houseSuffx": "",
    "streetName": "Ala Koa St",
    "city": "Waimanalo",
    "zipCode": 96795
  },
  {
    "tmk": 41016110,
    "description": "OSDS",
    "location": "Waimanalo",
    "housePrfx": 41,
    "houseNumbr": 102,
    "houseSuffx": "",
    "streetName": "Nalu St",
    "city": "Waimanalo",
    "zipCode": 96795
  },
  {
    "tmk": 41016111,
    "description": "OSDS",
    "location": "Waimanalo",
    "housePrfx": 41,
    "houseNumbr": 106,
    "houseSuffx": "",
    "streetName": "Nalu St",
    "city": "Waimanalo",
    "zipCode": 96795
  },
  {
    "tmk": 41017001,
    "description": "OSDS",
    "location": "Waimanalo",
    "housePrfx": "",
    "houseNumbr": "",
    "houseSuffx": "",
    "streetName": "",
    "city": "Waimanalo",
    "zipCode": 96795
  },
  {
    "tmk": 41017002,
    "description": "OSDS",
    "location": "Waimanalo",
    "housePrfx": 41,
    "houseNumbr": 550,
    "houseSuffx": "",
    "streetName": "Kalanianaole Hwy",
    "city": "Waimanalo",
    "zipCode": 96795
  },
  {
    "tmk": 41017003,
    "description": "OSDS",
    "location": "Waimanalo",
    "housePrfx": 41,
    "houseNumbr": 554,
    "houseSuffx": "",
    "streetName": "Kalanianaole Hwy",
    "city": "Waimanalo",
    "zipCode": 96795
  },
  {
    "tmk": 41017004,
    "description": "OSDS",
    "location": "Waimanalo",
    "housePrfx": 41,
    "houseNumbr": 560,
    "houseSuffx": "",
    "streetName": "Kalanianaole Hwy",
    "city": "Waimanalo",
    "zipCode": 96795
  },
  {
    "tmk": 41017005,
    "description": "OSDS",
    "location": "Waimanalo",
    "housePrfx": 41,
    "houseNumbr": 564,
    "houseSuffx": "",
    "streetName": "Kalanianaole Hwy",
    "city": "Waimanalo",
    "zipCode": 96795
  },
  {
    "tmk": 41017006,
    "description": "OSDS",
    "location": "Waimanalo",
    "housePrfx": 41,
    "houseNumbr": 570,
    "houseSuffx": "",
    "streetName": "Kalanianaole Hwy",
    "city": "Waimanalo",
    "zipCode": 96795
  },
  {
    "tmk": 41017007,
    "description": "OSDS",
    "location": "Waimanalo",
    "housePrfx": 41,
    "houseNumbr": 576,
    "houseSuffx": "",
    "streetName": "Kalanianaole Hwy",
    "city": "Waimanalo",
    "zipCode": 96795
  },
  {
    "tmk": 41017008,
    "description": "OSDS",
    "location": "Waimanalo",
    "housePrfx": 41,
    "houseNumbr": 578,
    "houseSuffx": "",
    "streetName": "Kalanianaole Hwy",
    "city": "Waimanalo",
    "zipCode": 96795
  },
  {
    "tmk": 41017009,
    "description": "OSDS",
    "location": "Waimanalo",
    "housePrfx": 41,
    "houseNumbr": 584,
    "houseSuffx": "",
    "streetName": "Kalanianaole Hwy",
    "city": "Waimanalo",
    "zipCode": 96795
  },
  {
    "tmk": 41017010,
    "description": "OSDS",
    "location": "Waimanalo",
    "housePrfx": 41,
    "houseNumbr": 590,
    "houseSuffx": "",
    "streetName": "Kalanianaole Hwy",
    "city": "Waimanalo",
    "zipCode": 96795
  },
  {
    "tmk": 41017011,
    "description": "OSDS",
    "location": "Waimanalo",
    "housePrfx": 41,
    "houseNumbr": 594,
    "houseSuffx": "",
    "streetName": "Kalanianaole Hwy",
    "city": "Waimanalo",
    "zipCode": 96795
  },
  {
    "tmk": 41017012,
    "description": "OSDS",
    "location": "Waimanalo",
    "housePrfx": 41,
    "houseNumbr": 600,
    "houseSuffx": "B",
    "streetName": "Kalanianaole Hwy",
    "city": "Waimanalo",
    "zipCode": 96795
  },
  {
    "tmk": 41017013,
    "description": "OSDS",
    "location": "Waimanalo",
    "housePrfx": 41,
    "houseNumbr": 606,
    "houseSuffx": "",
    "streetName": "Kalanianaole Hwy",
    "city": "Waimanalo",
    "zipCode": 96795
  },
  {
    "tmk": 41017014,
    "description": "OSDS",
    "location": "Waimanalo",
    "housePrfx": 41,
    "houseNumbr": 612,
    "houseSuffx": "",
    "streetName": "Kalanianaole Hwy",
    "city": "Waimanalo",
    "zipCode": 96795
  },
  {
    "tmk": 41017015,
    "description": "OSDS",
    "location": "Waimanalo",
    "housePrfx": 41,
    "houseNumbr": 614,
    "houseSuffx": "",
    "streetName": "Bell St",
    "city": "Waimanalo",
    "zipCode": 96795
  },
  {
    "tmk": 41017016,
    "description": "OSDS",
    "location": "Waimanalo",
    "housePrfx": "",
    "houseNumbr": "",
    "houseSuffx": "",
    "streetName": "",
    "city": "Waimanalo",
    "zipCode": 96795
  },
  {
    "tmk": 41017017,
    "description": "OSDS",
    "location": "Waimanalo",
    "housePrfx": 41,
    "houseNumbr": 628,
    "houseSuffx": "",
    "streetName": "Bell St",
    "city": "Waimanalo",
    "zipCode": 96795
  },
  {
    "tmk": 41017018,
    "description": "OSDS",
    "location": "Waimanalo",
    "housePrfx": 41,
    "houseNumbr": 634,
    "houseSuffx": "",
    "streetName": "Bell St",
    "city": "Waimanalo",
    "zipCode": 96795
  },
  {
    "tmk": 41017019,
    "description": "OSDS",
    "location": "Waimanalo",
    "housePrfx": 41,
    "houseNumbr": 646,
    "houseSuffx": "",
    "streetName": "Bell St",
    "city": "Waimanalo",
    "zipCode": 96795
  },
  {
    "tmk": 41017020,
    "description": "OSDS",
    "location": "Waimanalo",
    "housePrfx": 41,
    "houseNumbr": 650,
    "houseSuffx": "",
    "streetName": "Bell St",
    "city": "Waimanalo",
    "zipCode": 96795
  },
  {
    "tmk": 41017022,
    "description": "OSDS",
    "location": "Waimanalo",
    "housePrfx": 41,
    "houseNumbr": 610,
    "houseSuffx": "",
    "streetName": "Kalanianaole Hwy",
    "city": "Waimanalo",
    "zipCode": 96795
  },
  {
    "tmk": 41017023,
    "description": "OSDS",
    "location": "Waimanalo",
    "housePrfx": 41,
    "houseNumbr": 632,
    "houseSuffx": "",
    "streetName": "Bell St",
    "city": "Waimanalo",
    "zipCode": 96795
  },
  {
    "tmk": 41017024,
    "description": "OSDS",
    "location": "Waimanalo",
    "housePrfx": 41,
    "houseNumbr": 600,
    "houseSuffx": "",
    "streetName": "Kalanianaole Hwy",
    "city": "Waimanalo",
    "zipCode": 96795
  },
  {
    "tmk": 41017025,
    "description": "OSDS",
    "location": "Waimanalo",
    "housePrfx": 41,
    "houseNumbr": 574,
    "houseSuffx": "",
    "streetName": "Kalanianaole Hwy",
    "city": "Waimanalo",
    "zipCode": 96795
  },
  {
    "tmk": 41017026,
    "description": "OSDS",
    "location": "Waimanalo",
    "housePrfx": "",
    "houseNumbr": "",
    "houseSuffx": "",
    "streetName": "",
    "city": "Waimanalo",
    "zipCode": 96795
  },
  {
    "tmk": 41017027,
    "description": "OSDS",
    "location": "Waimanalo",
    "housePrfx": 41,
    "houseNumbr": 652,
    "houseSuffx": "",
    "streetName": "Bell St",
    "city": "Waimanalo",
    "zipCode": 96795
  },
  {
    "tmk": 41017028,
    "description": "OSDS",
    "location": "Waimanalo",
    "housePrfx": 41,
    "houseNumbr": 620,
    "houseSuffx": "",
    "streetName": "Bell St",
    "city": "Waimanalo",
    "zipCode": 96795
  },
  {
    "tmk": 41017029,
    "description": "OSDS",
    "location": "Waimanalo",
    "housePrfx": "",
    "houseNumbr": "",
    "houseSuffx": "",
    "streetName": "",
    "city": "Waimanalo",
    "zipCode": 96795
  },
  {
    "tmk": 41019032,
    "description": "OSDS",
    "location": "Waimanalo",
    "housePrfx": 41,
    "houseNumbr": 350,
    "houseSuffx": "",
    "streetName": "Nakini St",
    "city": "Waimanalo",
    "zipCode": 96795
  },
  {
    "tmk": 41021008,
    "description": "OSDS",
    "location": "Waimanalo",
    "housePrfx": 41,
    "houseNumbr": 939,
    "houseSuffx": "",
    "streetName": "Oluolu St",
    "city": "Waimanalo",
    "zipCode": 96795
  },
  {
    "tmk": 41031040,
    "description": "OSDS",
    "location": "Waimanalo",
    "housePrfx": "",
    "houseNumbr": "",
    "houseSuffx": "",
    "streetName": "",
    "city": "Waimanalo",
    "zipCode": 96795
  },
  {
    "tmk": 41031041,
    "description": "OSDS",
    "location": "Waimanalo",
    "housePrfx": 41,
    "houseNumbr": 133,
    "houseSuffx": "",
    "streetName": "Huli St",
    "city": "Waimanalo",
    "zipCode": 96795
  },
  {
    "tmk": 41038054,
    "description": "OSDS",
    "location": "Waimanalo",
    "housePrfx": "",
    "houseNumbr": "",
    "houseSuffx": "",
    "streetName": "",
    "city": "Waimanalo",
    "zipCode": 96795
  },
  {
    "tmk": 85004108,
    "description": "OSDS",
    "location": "Waianae",
    "housePrfx": 85,
    "houseNumbr": 1490,
    "houseSuffx": "",
    "streetName": "Kukai Pl",
    "city": "Waianae",
    "zipCode": 96792
  },
  {
    "tmk": 85004121,
    "description": "OSDS",
    "location": "Waianae",
    "housePrfx": 85,
    "houseNumbr": 1491,
    "houseSuffx": "",
    "streetName": "Kukai Pl",
    "city": "Waianae",
    "zipCode": 96792
  },
  {
    "tmk": 85030001,
    "description": "OSDS",
    "location": "Waianae",
    "housePrfx": 85,
    "houseNumbr": 1076,
    "houseSuffx": "",
    "streetName": "Kepauala Pl",
    "city": "Waianae",
    "zipCode": 96792
  },
  {
    "tmk": 85030002,
    "description": "OSDS",
    "location": "Waianae",
    "housePrfx": 85,
    "houseNumbr": 1080,
    "houseSuffx": "",
    "streetName": "Kepauala Pl",
    "city": "Waianae",
    "zipCode": 96792
  },
  {
    "tmk": 85030003,
    "description": "OSDS",
    "location": "Waianae",
    "housePrfx": 85,
    "houseNumbr": 1084,
    "houseSuffx": "",
    "streetName": "Kepauala Pl",
    "city": "Waianae",
    "zipCode": 96792
  },
  {
    "tmk": 85030004,
    "description": "OSDS",
    "location": "Waianae",
    "housePrfx": 85,
    "houseNumbr": 1090,
    "houseSuffx": "",
    "streetName": "Kepauala Pl",
    "city": "Waianae",
    "zipCode": 96792
  },
  {
    "tmk": 85030005,
    "description": "OSDS",
    "location": "Waianae",
    "housePrfx": 85,
    "houseNumbr": 1096,
    "houseSuffx": "",
    "streetName": "Kepauala Pl",
    "city": "Waianae",
    "zipCode": 96792
  },
  {
    "tmk": 85030006,
    "description": "OSDS",
    "location": "Waianae",
    "housePrfx": 85,
    "houseNumbr": 1102,
    "houseSuffx": "",
    "streetName": "Kepauala Pl",
    "city": "Waianae",
    "zipCode": 96792
  },
  {
    "tmk": 85030007,
    "description": "OSDS",
    "location": "Waianae",
    "housePrfx": 85,
    "houseNumbr": 1108,
    "houseSuffx": "",
    "streetName": "Kepauala Pl",
    "city": "Waianae",
    "zipCode": 96792
  },
  {
    "tmk": 85030008,
    "description": "OSDS",
    "location": "Waianae",
    "housePrfx": 85,
    "houseNumbr": 1116,
    "houseSuffx": "",
    "streetName": "Kepauala Pl",
    "city": "Waianae",
    "zipCode": 96792
  },
  {
    "tmk": 85030009,
    "description": "OSDS",
    "location": "Waianae",
    "housePrfx": 85,
    "houseNumbr": 1122,
    "houseSuffx": "",
    "streetName": "Kepauala Pl",
    "city": "Waianae",
    "zipCode": 96792
  },
  {
    "tmk": 85030010,
    "description": "OSDS",
    "location": "Waianae",
    "housePrfx": 85,
    "houseNumbr": 1126,
    "houseSuffx": "",
    "streetName": "Kepauala Pl",
    "city": "Waianae",
    "zipCode": 96792
  },
  {
    "tmk": 85030011,
    "description": "OSDS",
    "location": "Waianae",
    "housePrfx": 85,
    "houseNumbr": 1130,
    "houseSuffx": "",
    "streetName": "Kepauala Pl",
    "city": "Waianae",
    "zipCode": 96792
  },
  {
    "tmk": 85030012,
    "description": "OSDS",
    "location": "Waianae",
    "housePrfx": 85,
    "houseNumbr": 1135,
    "houseSuffx": "",
    "streetName": "Kepauala Pl",
    "city": "Waianae",
    "zipCode": 96792
  },
  {
    "tmk": 85030013,
    "description": "OSDS",
    "location": "Waianae",
    "housePrfx": 85,
    "houseNumbr": 1129,
    "houseSuffx": "",
    "streetName": "Kepauala Pl",
    "city": "Waianae",
    "zipCode": 96792
  },
  {
    "tmk": 85030014,
    "description": "OSDS",
    "location": "Waianae",
    "housePrfx": 85,
    "houseNumbr": 1121,
    "houseSuffx": "",
    "streetName": "Kepauala Pl",
    "city": "Waianae",
    "zipCode": 96792
  },
  {
    "tmk": 85030015,
    "description": "OSDS",
    "location": "Waianae",
    "housePrfx": 85,
    "houseNumbr": 1115,
    "houseSuffx": "",
    "streetName": "Kepauala Pl",
    "city": "Waianae",
    "zipCode": 96792
  },
  {
    "tmk": 85030016,
    "description": "OSDS",
    "location": "Waianae",
    "housePrfx": 85,
    "houseNumbr": 1109,
    "houseSuffx": "",
    "streetName": "Kepauala Pl",
    "city": "Waianae",
    "zipCode": 96792
  },
  {
    "tmk": 85030017,
    "description": "OSDS",
    "location": "Waianae",
    "housePrfx": 85,
    "houseNumbr": 1103,
    "houseSuffx": "",
    "streetName": "Kepauala Pl",
    "city": "Waianae",
    "zipCode": 96792
  },
  {
    "tmk": 85030018,
    "description": "OSDS",
    "location": "Waianae",
    "housePrfx": 85,
    "houseNumbr": 1095,
    "houseSuffx": "",
    "streetName": "Kepauala Pl",
    "city": "Waianae",
    "zipCode": 96792
  },
  {
    "tmk": 85030019,
    "description": "OSDS",
    "location": "Waianae",
    "housePrfx": 85,
    "houseNumbr": 1083,
    "houseSuffx": "",
    "streetName": "Kepauala Pl",
    "city": "Waianae",
    "zipCode": 96792
  },
  {
    "tmk": 85030020,
    "description": "OSDS",
    "location": "Waianae",
    "housePrfx": 85,
    "houseNumbr": 1140,
    "houseSuffx": "",
    "streetName": "Kaneaki St",
    "city": "Waianae",
    "zipCode": 96792
  },
  {
    "tmk": 85030021,
    "description": "OSDS",
    "location": "Waianae",
    "housePrfx": 85,
    "houseNumbr": 1150,
    "houseSuffx": "",
    "streetName": "Kaneaki St",
    "city": "Waianae",
    "zipCode": 96792
  },
  {
    "tmk": 85030030,
    "description": "OSDS",
    "location": "Waianae",
    "housePrfx": 85,
    "houseNumbr": 1272,
    "houseSuffx": "",
    "streetName": "Punanaula St",
    "city": "Waianae",
    "zipCode": 96792
  },
  {
    "tmk": 85030031,
    "description": "OSDS",
    "location": "Waianae",
    "housePrfx": 85,
    "houseNumbr": 1280,
    "houseSuffx": "",
    "streetName": "Punanaula St",
    "city": "Waianae",
    "zipCode": 96792
  },
  {
    "tmk": 85030032,
    "description": "OSDS",
    "location": "Waianae",
    "housePrfx": 85,
    "houseNumbr": 1284,
    "houseSuffx": "",
    "streetName": "Punanaula St",
    "city": "Waianae",
    "zipCode": 96792
  },
  {
    "tmk": 85030033,
    "description": "OSDS",
    "location": "Waianae",
    "housePrfx": 85,
    "houseNumbr": 1288,
    "houseSuffx": "",
    "streetName": "Punanaula St",
    "city": "Waianae",
    "zipCode": 96792
  },
  {
    "tmk": 85030034,
    "description": "OSDS",
    "location": "Waianae",
    "housePrfx": 85,
    "houseNumbr": 1287,
    "houseSuffx": "",
    "streetName": "Punanaula St",
    "city": "Waianae",
    "zipCode": 96792
  },
  {
    "tmk": 85030035,
    "description": "OSDS",
    "location": "Waianae",
    "housePrfx": 85,
    "houseNumbr": 1279,
    "houseSuffx": "",
    "streetName": "Punanaula St",
    "city": "Waianae",
    "zipCode": 96792
  },
  {
    "tmk": 85030036,
    "description": "OSDS",
    "location": "Waianae",
    "housePrfx": 85,
    "houseNumbr": 1236,
    "houseSuffx": "",
    "streetName": "Kaneaki St",
    "city": "Waianae",
    "zipCode": 96792
  },
  {
    "tmk": 85032002,
    "description": "OSDS",
    "location": "Waianae",
    "housePrfx": 85,
    "houseNumbr": 1324,
    "houseSuffx": "",
    "streetName": "Puhinalo Pl",
    "city": "Waianae",
    "zipCode": 96792
  },
  {
    "tmk": 85032003,
    "description": "OSDS",
    "location": "Waianae",
    "housePrfx": 85,
    "houseNumbr": 1330,
    "houseSuffx": "",
    "streetName": "Puhinalo Pl",
    "city": "Waianae",
    "zipCode": 96792
  },
  {
    "tmk": 85032004,
    "description": "OSDS",
    "location": "Waianae",
    "housePrfx": 85,
    "houseNumbr": 1338,
    "houseSuffx": "",
    "streetName": "Puhinalo Pl",
    "city": "Waianae",
    "zipCode": 96792
  },
  {
    "tmk": 85032005,
    "description": "OSDS",
    "location": "Waianae",
    "housePrfx": 85,
    "houseNumbr": 1344,
    "houseSuffx": "",
    "streetName": "Puhinalo Pl",
    "city": "Waianae",
    "zipCode": 96792
  },
  {
    "tmk": 85032006,
    "description": "OSDS",
    "location": "Waianae",
    "housePrfx": 85,
    "houseNumbr": 1350,
    "houseSuffx": "",
    "streetName": "Puhinalo Pl",
    "city": "Waianae",
    "zipCode": 96792
  },
  {
    "tmk": 85032007,
    "description": "OSDS",
    "location": "Waianae",
    "housePrfx": 85,
    "houseNumbr": 1356,
    "houseSuffx": "",
    "streetName": "Puhinalo Pl",
    "city": "Waianae",
    "zipCode": 96792
  },
  {
    "tmk": 85032008,
    "description": "OSDS",
    "location": "Waianae",
    "housePrfx": 85,
    "houseNumbr": 1360,
    "houseSuffx": "",
    "streetName": "Puhinalo Pl",
    "city": "Waianae",
    "zipCode": 96792
  },
  {
    "tmk": 85032009,
    "description": "OSDS",
    "location": "Waianae",
    "housePrfx": 85,
    "houseNumbr": 1364,
    "houseSuffx": "",
    "streetName": "Puhinalo Pl",
    "city": "Waianae",
    "zipCode": 96792
  },
  {
    "tmk": 85032010,
    "description": "OSDS",
    "location": "Waianae",
    "housePrfx": 85,
    "houseNumbr": 1370,
    "houseSuffx": "",
    "streetName": "Puhinalo Pl",
    "city": "Waianae",
    "zipCode": 96792
  },
  {
    "tmk": 85032011,
    "description": "OSDS",
    "location": "Waianae",
    "housePrfx": 85,
    "houseNumbr": 1374,
    "houseSuffx": "",
    "streetName": "Puhinalo Pl",
    "city": "Waianae",
    "zipCode": 96792
  },
  {
    "tmk": 85032012,
    "description": "OSDS",
    "location": "Waianae",
    "housePrfx": 85,
    "houseNumbr": 1378,
    "houseSuffx": "",
    "streetName": "Puhinalo Pl",
    "city": "Waianae",
    "zipCode": 96792
  },
  {
    "tmk": 85032013,
    "description": "OSDS",
    "location": "Waianae",
    "housePrfx": 85,
    "houseNumbr": 1379,
    "houseSuffx": "",
    "streetName": "Puhinalo Pl",
    "city": "Waianae",
    "zipCode": 96792
  },
  {
    "tmk": 85032014,
    "description": "OSDS",
    "location": "Waianae",
    "housePrfx": 85,
    "houseNumbr": 1377,
    "houseSuffx": "",
    "streetName": "Puhinalo Pl",
    "city": "Waianae",
    "zipCode": 96792
  },
  {
    "tmk": 85032015,
    "description": "OSDS",
    "location": "Waianae",
    "housePrfx": 85,
    "houseNumbr": 1373,
    "houseSuffx": "",
    "streetName": "Puhinalo Pl",
    "city": "Waianae",
    "zipCode": 96792
  },
  {
    "tmk": 85032016,
    "description": "OSDS",
    "location": "Waianae",
    "housePrfx": 85,
    "houseNumbr": 1363,
    "houseSuffx": "",
    "streetName": "Puhinalo Pl",
    "city": "Waianae",
    "zipCode": 96792
  },
  {
    "tmk": 85032017,
    "description": "OSDS",
    "location": "Waianae",
    "housePrfx": 85,
    "houseNumbr": 1355,
    "houseSuffx": "",
    "streetName": "Puhinalo Pl",
    "city": "Waianae",
    "zipCode": 96792
  },
  {
    "tmk": 85032018,
    "description": "OSDS",
    "location": "Waianae",
    "housePrfx": 85,
    "houseNumbr": 1349,
    "houseSuffx": "",
    "streetName": "Puhinalo Pl",
    "city": "Waianae",
    "zipCode": 96792
  },
  {
    "tmk": 85032019,
    "description": "OSDS",
    "location": "Waianae",
    "housePrfx": 85,
    "houseNumbr": 1343,
    "houseSuffx": "",
    "streetName": "Puhinalo Pl",
    "city": "Waianae",
    "zipCode": 96792
  },
  {
    "tmk": 85032020,
    "description": "OSDS",
    "location": "Waianae",
    "housePrfx": 85,
    "houseNumbr": 1337,
    "houseSuffx": "",
    "streetName": "Puhinalo Pl",
    "city": "Waianae",
    "zipCode": 96792
  },
  {
    "tmk": 85032021,
    "description": "OSDS",
    "location": "Waianae",
    "housePrfx": 85,
    "houseNumbr": 1329,
    "houseSuffx": "",
    "streetName": "Puhinalo Pl",
    "city": "Waianae",
    "zipCode": 96792
  },
  {
    "tmk": 85032023,
    "description": "OSDS",
    "location": "Waianae",
    "housePrfx": 85,
    "houseNumbr": 1344,
    "houseSuffx": "",
    "streetName": "Halapoe Pl",
    "city": "Waianae",
    "zipCode": 96792
  },
  {
    "tmk": 85032024,
    "description": "OSDS",
    "location": "Waianae",
    "housePrfx": 85,
    "houseNumbr": 1350,
    "houseSuffx": "",
    "streetName": "Halapoe Pl",
    "city": "Waianae",
    "zipCode": 96792
  },
  {
    "tmk": 85032025,
    "description": "OSDS",
    "location": "Waianae",
    "housePrfx": 85,
    "houseNumbr": 1358,
    "houseSuffx": "",
    "streetName": "Halapoe Pl",
    "city": "Waianae",
    "zipCode": 96792
  },
  {
    "tmk": 85032026,
    "description": "OSDS",
    "location": "Waianae",
    "housePrfx": 85,
    "houseNumbr": 1364,
    "houseSuffx": "",
    "streetName": "Halapoe Pl",
    "city": "Waianae",
    "zipCode": 96792
  },
  {
    "tmk": 85032027,
    "description": "OSDS",
    "location": "Waianae",
    "housePrfx": 85,
    "houseNumbr": 1366,
    "houseSuffx": "",
    "streetName": "Halapoe Pl",
    "city": "Waianae",
    "zipCode": 96792
  },
  {
    "tmk": 85032029,
    "description": "OSDS",
    "location": "Waianae",
    "housePrfx": 85,
    "houseNumbr": 1363,
    "houseSuffx": "",
    "streetName": "Halapoe Pl",
    "city": "Waianae",
    "zipCode": 96792
  },
  {
    "tmk": 85032031,
    "description": "OSDS",
    "location": "Waianae",
    "housePrfx": 85,
    "houseNumbr": 1349,
    "houseSuffx": "",
    "streetName": "Halapoe Pl",
    "city": "Waianae",
    "zipCode": 96792
  },
  {
    "tmk": 85033020,
    "description": "OSDS",
    "location": "Waianae",
    "housePrfx": 85,
    "houseNumbr": 1278,
    "houseSuffx": "",
    "streetName": "Koolina St",
    "city": "Waianae",
    "zipCode": 96792
  },
  {
    "tmk": 85033021,
    "description": "OSDS",
    "location": "Waianae",
    "housePrfx": 85,
    "houseNumbr": 1288,
    "houseSuffx": "",
    "streetName": "Koolina St",
    "city": "Waianae",
    "zipCode": 96792
  },
  {
    "tmk": 85033022,
    "description": "OSDS",
    "location": "Waianae",
    "housePrfx": 85,
    "houseNumbr": 1298,
    "houseSuffx": "",
    "streetName": "Koolina St",
    "city": "Waianae",
    "zipCode": 96792
  },
  {
    "tmk": 85033023,
    "description": "OSDS",
    "location": "Waianae",
    "housePrfx": 85,
    "houseNumbr": 1306,
    "houseSuffx": "",
    "streetName": "Koolina St",
    "city": "Waianae",
    "zipCode": 96792
  },
  {
    "tmk": 85033024,
    "description": "OSDS",
    "location": "Waianae",
    "housePrfx": 85,
    "houseNumbr": 1312,
    "houseSuffx": "",
    "streetName": "Koolina St",
    "city": "Waianae",
    "zipCode": 96792
  },
  {
    "tmk": 85033025,
    "description": "OSDS",
    "location": "Waianae",
    "housePrfx": 85,
    "houseNumbr": 1318,
    "houseSuffx": "",
    "streetName": "Koolina St",
    "city": "Waianae",
    "zipCode": 96792
  },
  {
    "tmk": 85033026,
    "description": "OSDS",
    "location": "Waianae",
    "housePrfx": 85,
    "houseNumbr": 1324,
    "houseSuffx": "",
    "streetName": "Koolina St",
    "city": "Waianae",
    "zipCode": 96792
  },
  {
    "tmk": 85033027,
    "description": "OSDS",
    "location": "Waianae",
    "housePrfx": 85,
    "houseNumbr": 1330,
    "houseSuffx": "",
    "streetName": "Koolina St",
    "city": "Waianae",
    "zipCode": 96792
  },
  {
    "tmk": 85033028,
    "description": "OSDS",
    "location": "Waianae",
    "housePrfx": 85,
    "houseNumbr": 1338,
    "houseSuffx": "",
    "streetName": "Koolina St",
    "city": "Waianae",
    "zipCode": 96792
  },
  {
    "tmk": 85033029,
    "description": "OSDS",
    "location": "Waianae",
    "housePrfx": 85,
    "houseNumbr": 1344,
    "houseSuffx": "",
    "streetName": "Koolina St",
    "city": "Waianae",
    "zipCode": 96792
  },
  {
    "tmk": 85033030,
    "description": "OSDS",
    "location": "Waianae",
    "housePrfx": 85,
    "houseNumbr": 1350,
    "houseSuffx": "",
    "streetName": "Koolina St",
    "city": "Waianae",
    "zipCode": 96792
  },
  {
    "tmk": 85033031,
    "description": "OSDS",
    "location": "Waianae",
    "housePrfx": 85,
    "houseNumbr": 1356,
    "houseSuffx": "",
    "streetName": "Koolina St",
    "city": "Waianae",
    "zipCode": 96792
  },
  {
    "tmk": 85033032,
    "description": "OSDS",
    "location": "Waianae",
    "housePrfx": 85,
    "houseNumbr": 1364,
    "houseSuffx": "",
    "streetName": "Koolina St",
    "city": "Waianae",
    "zipCode": 96792
  },
  {
    "tmk": 85033033,
    "description": "OSDS",
    "location": "Waianae",
    "housePrfx": 85,
    "houseNumbr": 1370,
    "houseSuffx": "",
    "streetName": "Koolina St",
    "city": "Waianae",
    "zipCode": 96792
  },
  {
    "tmk": 85033034,
    "description": "OSDS",
    "location": "Waianae",
    "housePrfx": 85,
    "houseNumbr": 1376,
    "houseSuffx": "",
    "streetName": "Koolina St",
    "city": "Waianae",
    "zipCode": 96792
  },
  {
    "tmk": 85033037,
    "description": "OSDS",
    "location": "Waianae",
    "housePrfx": 85,
    "houseNumbr": 1503,
    "houseSuffx": "",
    "streetName": "Kapaekahi St",
    "city": "Waianae",
    "zipCode": 96792
  },
  {
    "tmk": 85033039,
    "description": "OSDS",
    "location": "Waianae",
    "housePrfx": 85,
    "houseNumbr": 1491,
    "houseSuffx": "",
    "streetName": "Kapaekahi St",
    "city": "Waianae",
    "zipCode": 96792
  },
  {
    "tmk": 85033042,
    "description": "OSDS",
    "location": "Waianae",
    "housePrfx": 85,
    "houseNumbr": 1469,
    "houseSuffx": "",
    "streetName": "Kapaekahi St",
    "city": "Waianae",
    "zipCode": 96792
  },
  {
    "tmk": 85033048,
    "description": "OSDS",
    "location": "Waianae",
    "housePrfx": 85,
    "houseNumbr": 1375,
    "houseSuffx": "",
    "streetName": "Koolina St",
    "city": "Waianae",
    "zipCode": 96792
  },
  {
    "tmk": 85033049,
    "description": "OSDS",
    "location": "Waianae",
    "housePrfx": 85,
    "houseNumbr": 1367,
    "houseSuffx": "",
    "streetName": "Koolina St",
    "city": "Waianae",
    "zipCode": 96792
  },
  {
    "tmk": 85033050,
    "description": "OSDS",
    "location": "Waianae",
    "housePrfx": 85,
    "houseNumbr": 1421,
    "houseSuffx": "",
    "streetName": "Kamaileunu St",
    "city": "Waianae",
    "zipCode": 96792
  },
  {
    "tmk": 85033051,
    "description": "OSDS",
    "location": "Waianae",
    "housePrfx": 85,
    "houseNumbr": 1415,
    "houseSuffx": "",
    "streetName": "Kamaileunu St",
    "city": "Waianae",
    "zipCode": 96792
  },
  {
    "tmk": 85033052,
    "description": "OSDS",
    "location": "Waianae",
    "housePrfx": 85,
    "houseNumbr": 1409,
    "houseSuffx": "",
    "streetName": "Kamaileunu St",
    "city": "Waianae",
    "zipCode": 96792
  },
  {
    "tmk": 85033053,
    "description": "OSDS",
    "location": "Waianae",
    "housePrfx": 85,
    "houseNumbr": 1412,
    "houseSuffx": "",
    "streetName": "Kamaileunu St",
    "city": "Waianae",
    "zipCode": 96792
  },
  {
    "tmk": 85033054,
    "description": "OSDS",
    "location": "Waianae",
    "housePrfx": 85,
    "houseNumbr": 1428,
    "houseSuffx": "",
    "streetName": "Kamaileunu St",
    "city": "Waianae",
    "zipCode": 96792
  },
  {
    "tmk": 85033055,
    "description": "OSDS",
    "location": "Waianae",
    "housePrfx": 85,
    "houseNumbr": 1347,
    "houseSuffx": "",
    "streetName": "Koolina St",
    "city": "Waianae",
    "zipCode": 96792
  },
  {
    "tmk": 85033056,
    "description": "OSDS",
    "location": "Waianae",
    "housePrfx": 85,
    "houseNumbr": 1341,
    "houseSuffx": "",
    "streetName": "Koolina St",
    "city": "Waianae",
    "zipCode": 96792
  },
  {
    "tmk": 85033057,
    "description": "OSDS",
    "location": "Waianae",
    "housePrfx": 85,
    "houseNumbr": 1335,
    "houseSuffx": "",
    "streetName": "Koolina St",
    "city": "Waianae",
    "zipCode": 96792
  },
  {
    "tmk": 85033058,
    "description": "OSDS",
    "location": "Waianae",
    "housePrfx": 85,
    "houseNumbr": 1327,
    "houseSuffx": "",
    "streetName": "Koolina St",
    "city": "Waianae",
    "zipCode": 96792
  },
  {
    "tmk": 85033059,
    "description": "OSDS",
    "location": "Waianae",
    "housePrfx": 85,
    "houseNumbr": 1321,
    "houseSuffx": "",
    "streetName": "Koolina St",
    "city": "Waianae",
    "zipCode": 96792
  },
  {
    "tmk": 85033060,
    "description": "OSDS",
    "location": "Waianae",
    "housePrfx": 85,
    "houseNumbr": 1315,
    "houseSuffx": "",
    "streetName": "Koolina St",
    "city": "Waianae",
    "zipCode": 96792
  },
  {
    "tmk": 85033061,
    "description": "OSDS",
    "location": "Waianae",
    "housePrfx": 85,
    "houseNumbr": 1309,
    "houseSuffx": "",
    "streetName": "Koolina St",
    "city": "Waianae",
    "zipCode": 96792
  },
  {
    "tmk": 85033062,
    "description": "OSDS",
    "location": "Waianae",
    "housePrfx": 85,
    "houseNumbr": 1301,
    "houseSuffx": "",
    "streetName": "Koolina St",
    "city": "Waianae",
    "zipCode": 96792
  },
  {
    "tmk": 85033063,
    "description": "OSDS",
    "location": "Waianae",
    "housePrfx": 85,
    "houseNumbr": 1295,
    "houseSuffx": "",
    "streetName": "Koolina St",
    "city": "Waianae",
    "zipCode": 96792
  },
  {
    "tmk": 85033064,
    "description": "OSDS",
    "location": "Waianae",
    "housePrfx": 85,
    "houseNumbr": 1289,
    "houseSuffx": "",
    "streetName": "Koolina St",
    "city": "Waianae",
    "zipCode": 96792
  },
  {
    "tmk": 85033065,
    "description": "OSDS",
    "location": "Waianae",
    "housePrfx": 85,
    "houseNumbr": 1285,
    "houseSuffx": "",
    "streetName": "Koolina St",
    "city": "Waianae",
    "zipCode": 96792
  },
  {
    "tmk": 85033066,
    "description": "OSDS",
    "location": "Waianae",
    "housePrfx": 85,
    "houseNumbr": 1279,
    "houseSuffx": "",
    "streetName": "Koolina St",
    "city": "Waianae",
    "zipCode": 96792
  },
  {
    "tmk": 85033067,
    "description": "OSDS",
    "location": "Waianae",
    "housePrfx": 85,
    "houseNumbr": 1273,
    "houseSuffx": "",
    "streetName": "Koolina St",
    "city": "Waianae",
    "zipCode": 96792
  },
  {
    "tmk": 85033068,
    "description": "OSDS",
    "location": "Waianae",
    "housePrfx": 85,
    "houseNumbr": 1267,
    "houseSuffx": "",
    "streetName": "Koolina St",
    "city": "Waianae",
    "zipCode": 96792
  },
  {
    "tmk": 85033072,
    "description": "OSDS",
    "location": "Waianae",
    "housePrfx": 85,
    "houseNumbr": 1260,
    "houseSuffx": "",
    "streetName": "Kumaipo St",
    "city": "Waianae",
    "zipCode": 96792
  },
  {
    "tmk": 85033081,
    "description": "OSDS",
    "location": "Waianae",
    "housePrfx": 85,
    "houseNumbr": 1253,
    "houseSuffx": "",
    "streetName": "Kumaipo St",
    "city": "Waianae",
    "zipCode": 96792
  },
  {
    "tmk": 85036033,
    "description": "OSDS",
    "location": "Waianae",
    "housePrfx": 85,
    "houseNumbr": 1409,
    "houseSuffx": "",
    "streetName": "Kaneaki St",
    "city": "Waianae",
    "zipCode": 96792
  },
  {
    "tmk": 89002001,
    "description": "OSDS",
    "location": "Nanakuli",
    "housePrfx": 89,
    "houseNumbr": 201,
    "houseSuffx": "",
    "streetName": "Lepeka Ave",
    "city": "Nanakuli",
    "zipCode": 96792
  },
  {
    "tmk": 89002002,
    "description": "OSDS",
    "location": "Nanakuli",
    "housePrfx": 89,
    "houseNumbr": 56,
    "houseSuffx": "",
    "streetName": "Farrington Hwy",
    "city": "Nanakuli",
    "zipCode": 96792
  },
  {
    "tmk": 89002003,
    "description": "OSDS",
    "location": "Nanakuli",
    "housePrfx": 89,
    "houseNumbr": 48,
    "houseSuffx": "",
    "streetName": "Farrington Hwy",
    "city": "Nanakuli",
    "zipCode": 96792
  },
  {
    "tmk": 89002022,
    "description": "OSDS",
    "location": "Nanakuli",
    "housePrfx": 89,
    "houseNumbr": 145,
    "houseSuffx": "A",
    "streetName": "Mano Ave",
    "city": "Nanakuli",
    "zipCode": 96792
  },
  {
    "tmk": 89002023,
    "description": "OSDS",
    "location": "Nanakuli",
    "housePrfx": "",
    "houseNumbr": "",
    "houseSuffx": "",
    "streetName": "",
    "city": "Nanakuli",
    "zipCode": 96792
  },
  {
    "tmk": 89002024,
    "description": "OSDS",
    "location": "Nanakuli",
    "housePrfx": 89,
    "houseNumbr": 165,
    "houseSuffx": "",
    "streetName": "Mano Ave",
    "city": "Nanakuli",
    "zipCode": 96792
  },
  {
    "tmk": 89002025,
    "description": "OSDS",
    "location": "Nanakuli",
    "housePrfx": 89,
    "houseNumbr": 175,
    "houseSuffx": "",
    "streetName": "Mano Ave",
    "city": "Nanakuli",
    "zipCode": 96792
  },
  {
    "tmk": 89002026,
    "description": "OSDS",
    "location": "Nanakuli",
    "housePrfx": 89,
    "houseNumbr": 185,
    "houseSuffx": "",
    "streetName": "Mano Ave",
    "city": "Nanakuli",
    "zipCode": 96792
  },
  {
    "tmk": 89002027,
    "description": "OSDS",
    "location": "Nanakuli",
    "housePrfx": "",
    "houseNumbr": "",
    "houseSuffx": "",
    "streetName": "",
    "city": "Nanakuli",
    "zipCode": 96792
  },
  {
    "tmk": 89002028,
    "description": "OSDS",
    "location": "Nanakuli",
    "housePrfx": 89,
    "houseNumbr": 221,
    "houseSuffx": "",
    "streetName": "Mano Ave",
    "city": "Nanakuli",
    "zipCode": 96792
  },
  {
    "tmk": 89002030,
    "description": "OSDS",
    "location": "Nanakuli",
    "housePrfx": 89,
    "houseNumbr": 14,
    "houseSuffx": "",
    "streetName": "Farrington Hwy",
    "city": "Nanakuli",
    "zipCode": 96792
  },
  {
    "tmk": 89002031,
    "description": "OSDS",
    "location": "Nanakuli",
    "housePrfx": 89,
    "houseNumbr": 8,
    "houseSuffx": "",
    "streetName": "Farrington Hwy",
    "city": "Nanakuli",
    "zipCode": 96792
  },
  {
    "tmk": 89002053,
    "description": "OSDS",
    "location": "Nanakuli",
    "housePrfx": 89,
    "houseNumbr": 145,
    "houseSuffx": "B",
    "streetName": "Mano Ave",
    "city": "Nanakuli",
    "zipCode": 96792
  },
  {
    "tmk": 89002054,
    "description": "OSDS",
    "location": "Nanakuli",
    "housePrfx": 89,
    "houseNumbr": 231,
    "houseSuffx": "",
    "streetName": "Mano Ave",
    "city": "Nanakuli",
    "zipCode": 96792
  },
  {
    "tmk": 89002055,
    "description": "OSDS",
    "location": "Nanakuli",
    "housePrfx": 89,
    "houseNumbr": 165,
    "houseSuffx": "B",
    "streetName": "Mano Ave",
    "city": "Nanakuli",
    "zipCode": 96792
  },
  {
    "tmk": 89002056,
    "description": "OSDS",
    "location": "Nanakuli",
    "housePrfx": 89,
    "houseNumbr": 50,
    "houseSuffx": "",
    "streetName": "Farrington Hwy",
    "city": "Nanakuli",
    "zipCode": 96792
  },
  {
    "tmk": 89003002,
    "description": "OSDS",
    "location": "Nanakuli",
    "housePrfx": "",
    "houseNumbr": "",
    "houseSuffx": "",
    "streetName": "",
    "city": "Nanakuli",
    "zipCode": 96792
  },
  {
    "tmk": 89003003,
    "description": "OSDS",
    "location": "Nanakuli",
    "housePrfx": 89,
    "houseNumbr": 136,
    "houseSuffx": "",
    "streetName": "Mano Ave",
    "city": "Nanakuli",
    "zipCode": 96792
  },
  {
    "tmk": 89003054,
    "description": "OSDS",
    "location": "Nanakuli",
    "housePrfx": 89,
    "houseNumbr": 154,
    "houseSuffx": "",
    "streetName": "Mano Ave",
    "city": "Nanakuli",
    "zipCode": 96792
  },
  {
    "tmk": 89003060,
    "description": "OSDS",
    "location": "Nanakuli",
    "housePrfx": 89,
    "houseNumbr": 158,
    "houseSuffx": "",
    "streetName": "Mano Ave",
    "city": "Nanakuli",
    "zipCode": 96792
  },
  {
    "tmk": 89003061,
    "description": "OSDS",
    "location": "Nanakuli",
    "housePrfx": 89,
    "houseNumbr": 630,
    "houseSuffx": "A",
    "streetName": "Haleakala Ave",
    "city": "Nanakuli",
    "zipCode": 96792
  },
  {
    "tmk": 89003063,
    "description": "OSDS",
    "location": "Nanakuli",
    "housePrfx": "",
    "houseNumbr": "",
    "houseSuffx": "",
    "streetName": "",
    "city": "Nanakuli",
    "zipCode": 96792
  },
  {
    "tmk": 89003067,
    "description": "OSDS",
    "location": "Nanakuli",
    "housePrfx": 89,
    "houseNumbr": 168,
    "houseSuffx": "",
    "streetName": "Mano Ave",
    "city": "Nanakuli",
    "zipCode": 96792
  },
  {
    "tmk": 89003068,
    "description": "OSDS",
    "location": "Nanakuli",
    "housePrfx": 89,
    "houseNumbr": 172,
    "houseSuffx": "",
    "streetName": "Mano Ave",
    "city": "Nanakuli",
    "zipCode": 96792
  },
  {
    "tmk": 89004007,
    "description": "OSDS",
    "location": "Nanakuli",
    "housePrfx": 89,
    "houseNumbr": 406,
    "houseSuffx": "",
    "streetName": "Nanakuli Ave",
    "city": "Nanakuli",
    "zipCode": 96792
  },
  {
    "tmk": 89004008,
    "description": "OSDS",
    "location": "Nanakuli",
    "housePrfx": 89,
    "houseNumbr": 280,
    "houseSuffx": "",
    "streetName": "Mano Ave",
    "city": "Nanakuli",
    "zipCode": 96792
  },
  {
    "tmk": 89004009,
    "description": "OSDS",
    "location": "Nanakuli",
    "housePrfx": 89,
    "houseNumbr": 270,
    "houseSuffx": "",
    "streetName": "Mano Ave",
    "city": "Nanakuli",
    "zipCode": 96792
  },
  {
    "tmk": 89004010,
    "description": "OSDS",
    "location": "Nanakuli",
    "housePrfx": 89,
    "houseNumbr": 262,
    "houseSuffx": "",
    "streetName": "Mano Ave",
    "city": "Nanakuli",
    "zipCode": 96792
  },
  {
    "tmk": 89004011,
    "description": "OSDS",
    "location": "Nanakuli",
    "housePrfx": 89,
    "houseNumbr": 250,
    "houseSuffx": "",
    "streetName": "Mano Ave",
    "city": "Nanakuli",
    "zipCode": 96792
  },
  {
    "tmk": 89004012,
    "description": "OSDS",
    "location": "Nanakuli",
    "housePrfx": 89,
    "houseNumbr": 246,
    "houseSuffx": "",
    "streetName": "Mano Ave",
    "city": "Nanakuli",
    "zipCode": 96792
  },
  {
    "tmk": 89004013,
    "description": "OSDS",
    "location": "Nanakuli",
    "housePrfx": 89,
    "houseNumbr": 230,
    "houseSuffx": "",
    "streetName": "Mano Ave",
    "city": "Nanakuli",
    "zipCode": 96792
  },
  {
    "tmk": 89004014,
    "description": "OSDS",
    "location": "Nanakuli",
    "housePrfx": 89,
    "houseNumbr": 220,
    "houseSuffx": "",
    "streetName": "Mano Ave",
    "city": "Nanakuli",
    "zipCode": 96792
  },
  {
    "tmk": 89004015,
    "description": "OSDS",
    "location": "Nanakuli",
    "housePrfx": 89,
    "houseNumbr": 210,
    "houseSuffx": "",
    "streetName": "Mano Ave",
    "city": "Nanakuli",
    "zipCode": 96792
  },
  {
    "tmk": 89004016,
    "description": "OSDS",
    "location": "Nanakuli",
    "housePrfx": 89,
    "houseNumbr": 196,
    "houseSuffx": "",
    "streetName": "Mano Ave",
    "city": "Nanakuli",
    "zipCode": 96792
  },
  {
    "tmk": 89004115,
    "description": "OSDS",
    "location": "Nanakuli",
    "housePrfx": 89,
    "houseNumbr": 416,
    "houseSuffx": "",
    "streetName": "Nanakuli Ave",
    "city": "Nanakuli",
    "zipCode": 96792
  },
  {
    "tmk": 89004120,
    "description": "OSDS",
    "location": "Nanakuli",
    "housePrfx": 89,
    "houseNumbr": 256,
    "houseSuffx": "",
    "streetName": "Mano Ave",
    "city": "Nanakuli",
    "zipCode": 96792
  },
  {
    "tmk": 89004122,
    "description": "OSDS",
    "location": "Nanakuli",
    "housePrfx": 89,
    "houseNumbr": 234,
    "houseSuffx": "",
    "streetName": "Mano Ave",
    "city": "Nanakuli",
    "zipCode": 96792
  },
  {
    "tmk": 89004134,
    "description": "OSDS",
    "location": "Nanakuli",
    "housePrfx": 89,
    "houseNumbr": 118,
    "houseSuffx": "",
    "streetName": "Pililaau Ave",
    "city": "Nanakuli",
    "zipCode": 96792
  },
  {
    "tmk": 89004137,
    "description": "OSDS",
    "location": "Nanakuli",
    "housePrfx": 89,
    "houseNumbr": 220,
    "houseSuffx": "B",
    "streetName": "Mano Ave",
    "city": "Nanakuli",
    "zipCode": 96792
  },
  {
    "tmk": 89004140,
    "description": "OSDS",
    "location": "Nanakuli",
    "housePrfx": 89,
    "houseNumbr": 246,
    "houseSuffx": "B",
    "streetName": "Mano Ave",
    "city": "Nanakuli",
    "zipCode": 96792
  },
  {
    "tmk": 89004145,
    "description": "OSDS",
    "location": "Nanakuli",
    "housePrfx": "",
    "houseNumbr": "",
    "houseSuffx": "",
    "streetName": "",
    "city": "Nanakuli",
    "zipCode": 96792
  },
  {
    "tmk": 89004158,
    "description": "OSDS",
    "location": "Nanakuli",
    "housePrfx": 89,
    "houseNumbr": 198,
    "houseSuffx": "",
    "streetName": "Mano Ave",
    "city": "Nanakuli",
    "zipCode": 96792
  },
  {
    "tmk": 89005001,
    "description": "OSDS",
    "location": "Nanakuli",
    "housePrfx": 89,
    "houseNumbr": 318,
    "houseSuffx": "",
    "streetName": "Farrington Hwy",
    "city": "Nanakuli",
    "zipCode": 96792
  },
  {
    "tmk": 89005002,
    "description": "OSDS",
    "location": "Nanakuli",
    "housePrfx": 89,
    "houseNumbr": 308,
    "houseSuffx": "",
    "streetName": "Farrington Hwy",
    "city": "Nanakuli",
    "zipCode": 96792
  },
  {
    "tmk": 89005003,
    "description": "OSDS",
    "location": "Nanakuli",
    "housePrfx": 89,
    "houseNumbr": 298,
    "houseSuffx": "A",
    "streetName": "Farrington Hwy",
    "city": "Nanakuli",
    "zipCode": 96792
  },
  {
    "tmk": 89005004,
    "description": "OSDS",
    "location": "Nanakuli",
    "housePrfx": 89,
    "houseNumbr": 286,
    "houseSuffx": "",
    "streetName": "Farrington Hwy",
    "city": "Nanakuli",
    "zipCode": 96792
  },
  {
    "tmk": 89005005,
    "description": "OSDS",
    "location": "Nanakuli",
    "housePrfx": 89,
    "houseNumbr": 280,
    "houseSuffx": "",
    "streetName": "Farrington Hwy",
    "city": "Nanakuli",
    "zipCode": 96792
  },
  {
    "tmk": 89005006,
    "description": "OSDS",
    "location": "Nanakuli",
    "housePrfx": 89,
    "houseNumbr": 270,
    "houseSuffx": "",
    "streetName": "Farrington Hwy",
    "city": "Nanakuli",
    "zipCode": 96792
  },
  {
    "tmk": 89005010,
    "description": "OSDS",
    "location": "Nanakuli",
    "housePrfx": 89,
    "houseNumbr": 226,
    "houseSuffx": "",
    "streetName": "Farrington Hwy",
    "city": "Nanakuli",
    "zipCode": 96792
  },
  {
    "tmk": 89005012,
    "description": "OSDS",
    "location": "Nanakuli",
    "housePrfx": 89,
    "houseNumbr": 206,
    "houseSuffx": "",
    "streetName": "Farrington Hwy",
    "city": "Nanakuli",
    "zipCode": 96792
  },
  {
    "tmk": 89005013,
    "description": "OSDS",
    "location": "Nanakuli",
    "housePrfx": 89,
    "houseNumbr": 196,
    "houseSuffx": "",
    "streetName": "Farrington Hwy",
    "city": "Nanakuli",
    "zipCode": 96792
  },
  {
    "tmk": 89005014,
    "description": "OSDS",
    "location": "Nanakuli",
    "housePrfx": 89,
    "houseNumbr": 188,
    "houseSuffx": "",
    "streetName": "Farrington Hwy",
    "city": "Nanakuli",
    "zipCode": 96792
  },
  {
    "tmk": 89005016,
    "description": "OSDS",
    "location": "Nanakuli",
    "housePrfx": 89,
    "houseNumbr": 217,
    "houseSuffx": "",
    "streetName": "Pua Ave",
    "city": "Nanakuli",
    "zipCode": 96792
  },
  {
    "tmk": 89005025,
    "description": "OSDS",
    "location": "Nanakuli",
    "housePrfx": 89,
    "houseNumbr": 337,
    "houseSuffx": "",
    "streetName": "Pua Ave",
    "city": "Nanakuli",
    "zipCode": 96792
  },
  {
    "tmk": 89005026,
    "description": "OSDS",
    "location": "Nanakuli",
    "housePrfx": 89,
    "houseNumbr": 349,
    "houseSuffx": "",
    "streetName": "Pua Ave",
    "city": "Nanakuli",
    "zipCode": 96792
  },
  {
    "tmk": 89005027,
    "description": "OSDS",
    "location": "Nanakuli",
    "housePrfx": 89,
    "houseNumbr": 355,
    "houseSuffx": "",
    "streetName": "Pua Ave",
    "city": "Nanakuli",
    "zipCode": 96792
  },
  {
    "tmk": 89005028,
    "description": "OSDS",
    "location": "Nanakuli",
    "housePrfx": 89,
    "houseNumbr": 363,
    "houseSuffx": "",
    "streetName": "Pua Ave",
    "city": "Nanakuli",
    "zipCode": 96792
  },
  {
    "tmk": 89005029,
    "description": "OSDS",
    "location": "Nanakuli",
    "housePrfx": 89,
    "houseNumbr": 354,
    "houseSuffx": "",
    "streetName": "Pua Ave",
    "city": "Nanakuli",
    "zipCode": 96792
  },
  {
    "tmk": 89005030,
    "description": "OSDS",
    "location": "Nanakuli",
    "housePrfx": 89,
    "houseNumbr": 348,
    "houseSuffx": "",
    "streetName": "Pua Ave",
    "city": "Nanakuli",
    "zipCode": 96792
  },
  {
    "tmk": 89005031,
    "description": "OSDS",
    "location": "Nanakuli",
    "housePrfx": 89,
    "houseNumbr": 336,
    "houseSuffx": "",
    "streetName": "Pua Ave",
    "city": "Nanakuli",
    "zipCode": 96792
  },
  {
    "tmk": 89005032,
    "description": "OSDS",
    "location": "Nanakuli",
    "housePrfx": 89,
    "houseNumbr": 326,
    "houseSuffx": "",
    "streetName": "Pua Ave",
    "city": "Nanakuli",
    "zipCode": 96792
  },
  {
    "tmk": 89005040,
    "description": "OSDS",
    "location": "Nanakuli",
    "housePrfx": 89,
    "houseNumbr": 210,
    "houseSuffx": "",
    "streetName": "Pua Ave",
    "city": "Nanakuli",
    "zipCode": 96792
  },
  {
    "tmk": 89005066,
    "description": "OSDS",
    "location": "Nanakuli",
    "housePrfx": 89,
    "houseNumbr": 241,
    "houseSuffx": "",
    "streetName": "Mano Ave",
    "city": "Nanakuli",
    "zipCode": 96792
  },
  {
    "tmk": 89005067,
    "description": "OSDS",
    "location": "Nanakuli",
    "housePrfx": 89,
    "houseNumbr": 249,
    "houseSuffx": "",
    "streetName": "Mano Ave",
    "city": "Nanakuli",
    "zipCode": 96792
  },
  {
    "tmk": 89005068,
    "description": "OSDS",
    "location": "Nanakuli",
    "housePrfx": 89,
    "houseNumbr": 259,
    "houseSuffx": "",
    "streetName": "Mano Ave",
    "city": "Nanakuli",
    "zipCode": 96792
  },
  {
    "tmk": 89005069,
    "description": "OSDS",
    "location": "Nanakuli",
    "housePrfx": 89,
    "houseNumbr": 269,
    "houseSuffx": "",
    "streetName": "Mano Ave",
    "city": "Nanakuli",
    "zipCode": 96792
  },
  {
    "tmk": 89005070,
    "description": "OSDS",
    "location": "Nanakuli",
    "housePrfx": 89,
    "houseNumbr": 334,
    "houseSuffx": "",
    "streetName": "Nanakuli Ave",
    "city": "Nanakuli",
    "zipCode": 96792
  },
  {
    "tmk": 89005080,
    "description": "OSDS",
    "location": "Nanakuli",
    "housePrfx": 89,
    "houseNumbr": 321,
    "houseSuffx": "",
    "streetName": "Pua Ave",
    "city": "Nanakuli",
    "zipCode": 96792
  },
  {
    "tmk": 89005083,
    "description": "OSDS",
    "location": "Nanakuli",
    "housePrfx": 89,
    "houseNumbr": 328,
    "houseSuffx": "",
    "streetName": "Pua Ave",
    "city": "Nanakuli",
    "zipCode": 96792
  },
  {
    "tmk": 89005084,
    "description": "OSDS",
    "location": "Nanakuli",
    "housePrfx": 89,
    "houseNumbr": 210,
    "houseSuffx": "",
    "streetName": "Farrington Hwy",
    "city": "Nanakuli",
    "zipCode": 96792
  },
  {
    "tmk": 89005086,
    "description": "OSDS",
    "location": "Nanakuli",
    "housePrfx": 89,
    "houseNumbr": 255,
    "houseSuffx": "",
    "streetName": "Mano Ave",
    "city": "Nanakuli",
    "zipCode": 96792
  },
  {
    "tmk": 89005087,
    "description": "OSDS",
    "location": "Nanakuli",
    "housePrfx": 89,
    "houseNumbr": 298,
    "houseSuffx": "",
    "streetName": "Farrington Hwy",
    "city": "Nanakuli",
    "zipCode": 96792
  },
  {
    "tmk": 89005088,
    "description": "OSDS",
    "location": "Nanakuli",
    "housePrfx": 89,
    "houseNumbr": 316,
    "houseSuffx": "A",
    "streetName": "Pua Ave",
    "city": "Nanakuli",
    "zipCode": 96792
  },
  {
    "tmk": 89005089,
    "description": "OSDS",
    "location": "Nanakuli",
    "housePrfx": 89,
    "houseNumbr": 210,
    "houseSuffx": "",
    "streetName": "Lepeka Ave",
    "city": "Nanakuli",
    "zipCode": 96792
  },
  {
    "tmk": 89005092,
    "description": "OSDS",
    "location": "Nanakuli",
    "housePrfx": 89,
    "houseNumbr": 363,
    "houseSuffx": "A",
    "streetName": "Pua Ave",
    "city": "Nanakuli",
    "zipCode": 96792
  },
  {
    "tmk": 89005094,
    "description": "OSDS",
    "location": "Nanakuli",
    "housePrfx": 89,
    "houseNumbr": 212,
    "houseSuffx": "",
    "streetName": "Pua Ave",
    "city": "Nanakuli",
    "zipCode": 96792
  },
  {
    "tmk": 89005097,
    "description": "OSDS",
    "location": "Nanakuli",
    "housePrfx": 89,
    "houseNumbr": 208,
    "houseSuffx": "",
    "streetName": "Pua Ave",
    "city": "Nanakuli",
    "zipCode": 96792
  },
  {
    "tmk": 89005104,
    "description": "OSDS",
    "location": "Nanakuli",
    "housePrfx": 89,
    "houseNumbr": 205,
    "houseSuffx": "",
    "streetName": "Pua Ave",
    "city": "Nanakuli",
    "zipCode": 96792
  },
  {
    "tmk": 89006001,
    "description": "OSDS",
    "location": "Nanakuli",
    "housePrfx": 89,
    "houseNumbr": 11,
    "houseSuffx": "",
    "streetName": "Piliokahi Ave",
    "city": "Nanakuli",
    "zipCode": 96792
  },
  {
    "tmk": 89006008,
    "description": "OSDS",
    "location": "Nanakuli",
    "housePrfx": 89,
    "houseNumbr": 605,
    "houseSuffx": "",
    "streetName": "Pohakunui Ave",
    "city": "Nanakuli",
    "zipCode": 96792
  },
  {
    "tmk": 89006012,
    "description": "OSDS",
    "location": "Nanakuli",
    "housePrfx": 89,
    "houseNumbr": 527,
    "houseSuffx": "",
    "streetName": "Pohakunui Ave",
    "city": "Nanakuli",
    "zipCode": 96792
  },
  {
    "tmk": 89006014,
    "description": "OSDS",
    "location": "Nanakuli",
    "housePrfx": 89,
    "houseNumbr": 509,
    "houseSuffx": "",
    "streetName": "Pohakunui Ave",
    "city": "Nanakuli",
    "zipCode": 96792
  },
  {
    "tmk": 89006015,
    "description": "OSDS",
    "location": "Nanakuli",
    "housePrfx": 89,
    "houseNumbr": 21,
    "houseSuffx": "",
    "streetName": "Piliokahi Ave",
    "city": "Nanakuli",
    "zipCode": 96792
  },
  {
    "tmk": 89006016,
    "description": "OSDS",
    "location": "Nanakuli",
    "housePrfx": 89,
    "houseNumbr": 20,
    "houseSuffx": "",
    "streetName": "Piliokahi Ave",
    "city": "Nanakuli",
    "zipCode": 96792
  },
  {
    "tmk": 89006030,
    "description": "OSDS",
    "location": "Nanakuli",
    "housePrfx": 89,
    "houseNumbr": 426,
    "houseSuffx": "",
    "streetName": "Keaulana Ave",
    "city": "Nanakuli",
    "zipCode": 96792
  },
  {
    "tmk": 89006035,
    "description": "OSDS",
    "location": "Nanakuli",
    "housePrfx": 89,
    "houseNumbr": 465,
    "houseSuffx": "A",
    "streetName": "Pohakunui Ave",
    "city": "Nanakuli",
    "zipCode": 96792
  },
  {
    "tmk": 89006043,
    "description": "OSDS",
    "location": "Nanakuli",
    "housePrfx": 89,
    "houseNumbr": 410,
    "houseSuffx": "",
    "streetName": "Farrington Hwy",
    "city": "Nanakuli",
    "zipCode": 96792
  },
  {
    "tmk": 89006044,
    "description": "OSDS",
    "location": "Nanakuli",
    "housePrfx": 89,
    "houseNumbr": 420,
    "houseSuffx": "",
    "streetName": "Farrington Hwy",
    "city": "Nanakuli",
    "zipCode": 96792
  },
  {
    "tmk": 89006045,
    "description": "OSDS",
    "location": "Nanakuli",
    "housePrfx": 89,
    "houseNumbr": 430,
    "houseSuffx": "",
    "streetName": "Farrington Hwy",
    "city": "Nanakuli",
    "zipCode": 96792
  },
  {
    "tmk": 89006046,
    "description": "OSDS",
    "location": "Nanakuli",
    "housePrfx": 89,
    "houseNumbr": 440,
    "houseSuffx": "",
    "streetName": "Farrington Hwy",
    "city": "Nanakuli",
    "zipCode": 96792
  },
  {
    "tmk": 89006047,
    "description": "OSDS",
    "location": "Nanakuli",
    "housePrfx": 89,
    "houseNumbr": 450,
    "houseSuffx": "",
    "streetName": "Farrington Hwy",
    "city": "Nanakuli",
    "zipCode": 96792
  },
  {
    "tmk": 89006048,
    "description": "OSDS",
    "location": "Nanakuli",
    "housePrfx": 89,
    "houseNumbr": 460,
    "houseSuffx": "",
    "streetName": "Farrington Hwy",
    "city": "Nanakuli",
    "zipCode": 96792
  },
  {
    "tmk": 89006049,
    "description": "OSDS",
    "location": "Nanakuli",
    "housePrfx": 89,
    "houseNumbr": 470,
    "houseSuffx": "",
    "streetName": "Farrington Hwy",
    "city": "Nanakuli",
    "zipCode": 96792
  },
  {
    "tmk": 89006050,
    "description": "OSDS",
    "location": "Nanakuli",
    "housePrfx": 89,
    "houseNumbr": 480,
    "houseSuffx": "",
    "streetName": "Farrington Hwy",
    "city": "Nanakuli",
    "zipCode": 96792
  },
  {
    "tmk": 89006051,
    "description": "OSDS",
    "location": "Nanakuli",
    "housePrfx": 89,
    "houseNumbr": 490,
    "houseSuffx": "",
    "streetName": "Farrington Hwy",
    "city": "Nanakuli",
    "zipCode": 96792
  },
  {
    "tmk": 89006052,
    "description": "OSDS",
    "location": "Nanakuli",
    "housePrfx": 89,
    "houseNumbr": 502,
    "houseSuffx": "",
    "streetName": "Farrington Hwy",
    "city": "Nanakuli",
    "zipCode": 96792
  },
  {
    "tmk": 89006053,
    "description": "OSDS",
    "location": "Nanakuli",
    "housePrfx": 89,
    "houseNumbr": 510,
    "houseSuffx": "",
    "streetName": "Farrington Hwy",
    "city": "Nanakuli",
    "zipCode": 96792
  },
  {
    "tmk": 89006054,
    "description": "OSDS",
    "location": "Nanakuli",
    "housePrfx": 89,
    "houseNumbr": 524,
    "houseSuffx": "",
    "streetName": "Farrington Hwy",
    "city": "Nanakuli",
    "zipCode": 96792
  },
  {
    "tmk": 89006055,
    "description": "OSDS",
    "location": "Nanakuli",
    "housePrfx": 89,
    "houseNumbr": 534,
    "houseSuffx": "",
    "streetName": "Farrington Hwy",
    "city": "Nanakuli",
    "zipCode": 96792
  },
  {
    "tmk": 89006056,
    "description": "OSDS",
    "location": "Nanakuli",
    "housePrfx": 89,
    "houseNumbr": 544,
    "houseSuffx": "",
    "streetName": "Farrington Hwy",
    "city": "Nanakuli",
    "zipCode": 96792
  },
  {
    "tmk": 89006058,
    "description": "OSDS",
    "location": "Nanakuli",
    "housePrfx": 89,
    "houseNumbr": 564,
    "houseSuffx": "",
    "streetName": "Farrington Hwy",
    "city": "Nanakuli",
    "zipCode": 96792
  },
  {
    "tmk": 89006059,
    "description": "OSDS",
    "location": "Nanakuli",
    "housePrfx": 89,
    "houseNumbr": 578,
    "houseSuffx": "",
    "streetName": "Farrington Hwy",
    "city": "Nanakuli",
    "zipCode": 96792
  },
  {
    "tmk": 89006060,
    "description": "OSDS",
    "location": "Nanakuli",
    "housePrfx": 89,
    "houseNumbr": 588,
    "houseSuffx": "",
    "streetName": "Farrington Hwy",
    "city": "Nanakuli",
    "zipCode": 96792
  },
  {
    "tmk": 89006061,
    "description": "OSDS",
    "location": "Nanakuli",
    "housePrfx": 89,
    "houseNumbr": 598,
    "houseSuffx": "",
    "streetName": "Farrington Hwy",
    "city": "Nanakuli",
    "zipCode": 96792
  },
  {
    "tmk": 89006062,
    "description": "OSDS",
    "location": "Nanakuli",
    "housePrfx": 89,
    "houseNumbr": 606,
    "houseSuffx": "",
    "streetName": "Farrington Hwy",
    "city": "Nanakuli",
    "zipCode": 96792
  },
  {
    "tmk": 89006063,
    "description": "OSDS",
    "location": "Nanakuli",
    "housePrfx": 89,
    "houseNumbr": 616,
    "houseSuffx": "",
    "streetName": "Farrington Hwy",
    "city": "Nanakuli",
    "zipCode": 96792
  },
  {
    "tmk": 89006064,
    "description": "OSDS",
    "location": "Nanakuli",
    "housePrfx": 89,
    "houseNumbr": 628,
    "houseSuffx": "",
    "streetName": "Farrington Hwy",
    "city": "Nanakuli",
    "zipCode": 96792
  },
  {
    "tmk": 89006065,
    "description": "OSDS",
    "location": "Nanakuli",
    "housePrfx": 89,
    "houseNumbr": 640,
    "houseSuffx": "",
    "streetName": "Farrington Hwy",
    "city": "Nanakuli",
    "zipCode": 96792
  },
  {
    "tmk": 89006066,
    "description": "OSDS",
    "location": "Nanakuli",
    "housePrfx": 89,
    "houseNumbr": 650,
    "houseSuffx": "",
    "streetName": "Farrington Hwy",
    "city": "Nanakuli",
    "zipCode": 96792
  },
  {
    "tmk": 89006067,
    "description": "OSDS",
    "location": "Nanakuli",
    "housePrfx": 89,
    "houseNumbr": 660,
    "houseSuffx": "",
    "streetName": "Farrington Hwy",
    "city": "Nanakuli",
    "zipCode": 96792
  },
  {
    "tmk": 89006070,
    "description": "OSDS",
    "location": "Nanakuli",
    "housePrfx": 89,
    "houseNumbr": 40,
    "houseSuffx": "",
    "streetName": "Piliokahi Ave",
    "city": "Nanakuli",
    "zipCode": 96792
  },
  {
    "tmk": 89006078,
    "description": "OSDS",
    "location": "Nanakuli",
    "housePrfx": 89,
    "houseNumbr": 456,
    "houseSuffx": "",
    "streetName": "Farrington Hwy",
    "city": "Nanakuli",
    "zipCode": 96792
  },
  {
    "tmk": 89006079,
    "description": "OSDS",
    "location": "Nanakuli",
    "housePrfx": 89,
    "houseNumbr": 519,
    "houseSuffx": "",
    "streetName": "Pohakunui Ave",
    "city": "Nanakuli",
    "zipCode": 96792
  },
  {
    "tmk": 89006080,
    "description": "OSDS",
    "location": "Nanakuli",
    "housePrfx": 89,
    "houseNumbr": 578,
    "houseSuffx": "",
    "streetName": "Farrington Hwy",
    "city": "Nanakuli",
    "zipCode": 96792
  },
  {
    "tmk": 89006082,
    "description": "OSDS",
    "location": "Nanakuli",
    "housePrfx": 89,
    "houseNumbr": 470,
    "houseSuffx": "A",
    "streetName": "Farrington Hwy",
    "city": "Nanakuli",
    "zipCode": 96792
  },
  {
    "tmk": 89006086,
    "description": "OSDS",
    "location": "Nanakuli",
    "housePrfx": 89,
    "houseNumbr": 606,
    "houseSuffx": "A",
    "streetName": "Farrington Hwy",
    "city": "Nanakuli",
    "zipCode": 96792
  },
  {
    "tmk": 89006091,
    "description": "OSDS",
    "location": "Nanakuli",
    "housePrfx": 89,
    "houseNumbr": 486,
    "houseSuffx": "",
    "streetName": "Farrington Hwy",
    "city": "Nanakuli",
    "zipCode": 96792
  },
  {
    "tmk": 89006093,
    "description": "OSDS",
    "location": "Nanakuli",
    "housePrfx": 89,
    "houseNumbr": 554,
    "houseSuffx": "",
    "streetName": "Farrington Hwy",
    "city": "Nanakuli",
    "zipCode": 96792
  },
  {
    "tmk": 89006094,
    "description": "OSDS",
    "location": "Nanakuli",
    "housePrfx": 89,
    "houseNumbr": 558,
    "houseSuffx": "",
    "streetName": "Farrington Hwy",
    "city": "Nanakuli",
    "zipCode": 96792
  },
  {
    "tmk": 89009019,
    "description": "OSDS",
    "location": "Nanakuli",
    "housePrfx": 89,
    "houseNumbr": 92,
    "houseSuffx": "",
    "streetName": "Palikea Pl",
    "city": "Nanakuli",
    "zipCode": 96792
  },
  {
    "tmk": 89010005,
    "description": "OSDS",
    "location": "Nanakuli",
    "housePrfx": 89,
    "houseNumbr": 1029,
    "houseSuffx": "",
    "streetName": "Ualamaoli Pl",
    "city": "Nanakuli",
    "zipCode": 96792
  },
  {
    "tmk": 89010006,
    "description": "OSDS",
    "location": "Nanakuli",
    "housePrfx": 89,
    "houseNumbr": 1035,
    "houseSuffx": "",
    "streetName": "Ualamaoli Pl",
    "city": "Nanakuli",
    "zipCode": 96792
  },
  {
    "tmk": 89010007,
    "description": "OSDS",
    "location": "Nanakuli",
    "housePrfx": 89,
    "houseNumbr": 1043,
    "houseSuffx": "",
    "streetName": "Ualamaoli Pl",
    "city": "Nanakuli",
    "zipCode": 96792
  },
  {
    "tmk": 89010008,
    "description": "OSDS",
    "location": "Nanakuli",
    "housePrfx": 89,
    "houseNumbr": 1049,
    "houseSuffx": "",
    "streetName": "Ualamaoli Pl",
    "city": "Nanakuli",
    "zipCode": 96792
  },
  {
    "tmk": 89010009,
    "description": "OSDS",
    "location": "Nanakuli",
    "housePrfx": 89,
    "houseNumbr": 1058,
    "houseSuffx": "",
    "streetName": "Ualamaoli Pl",
    "city": "Nanakuli",
    "zipCode": 96792
  },
  {
    "tmk": 89010010,
    "description": "OSDS",
    "location": "Nanakuli",
    "housePrfx": 89,
    "houseNumbr": 1048,
    "houseSuffx": "",
    "streetName": "Ualamaoli Pl",
    "city": "Nanakuli",
    "zipCode": 96792
  },
  {
    "tmk": 89010011,
    "description": "OSDS",
    "location": "Nanakuli",
    "housePrfx": 89,
    "houseNumbr": 1042,
    "houseSuffx": "",
    "streetName": "Ualamaoli Pl",
    "city": "Nanakuli",
    "zipCode": 96792
  },
  {
    "tmk": 89010012,
    "description": "OSDS",
    "location": "Nanakuli",
    "housePrfx": 89,
    "houseNumbr": 1036,
    "houseSuffx": "",
    "streetName": "Ualamaoli Pl",
    "city": "Nanakuli",
    "zipCode": 96792
  },
  {
    "tmk": 89010019,
    "description": "OSDS",
    "location": "Nanakuli",
    "housePrfx": 89,
    "houseNumbr": 1079,
    "houseSuffx": "",
    "streetName": "Puawiliwili Pl",
    "city": "Nanakuli",
    "zipCode": 96792
  },
  {
    "tmk": 89010020,
    "description": "OSDS",
    "location": "Nanakuli",
    "housePrfx": 89,
    "houseNumbr": 1085,
    "houseSuffx": "",
    "streetName": "Puawiliwili Pl",
    "city": "Nanakuli",
    "zipCode": 96792
  },
  {
    "tmk": 89010021,
    "description": "OSDS",
    "location": "Nanakuli",
    "housePrfx": 89,
    "houseNumbr": 1093,
    "houseSuffx": "",
    "streetName": "Puawiliwili Pl",
    "city": "Nanakuli",
    "zipCode": 96792
  },
  {
    "tmk": 89010022,
    "description": "OSDS",
    "location": "Nanakuli",
    "housePrfx": 89,
    "houseNumbr": 1099,
    "houseSuffx": "",
    "streetName": "Puawiliwili Pl",
    "city": "Nanakuli",
    "zipCode": 96792
  },
  {
    "tmk": 89010023,
    "description": "OSDS",
    "location": "Nanakuli",
    "housePrfx": 89,
    "houseNumbr": 1103,
    "houseSuffx": "",
    "streetName": "Puawiliwili Pl",
    "city": "Nanakuli",
    "zipCode": 96792
  },
  {
    "tmk": 89010024,
    "description": "OSDS",
    "location": "Nanakuli",
    "housePrfx": 89,
    "houseNumbr": 1113,
    "houseSuffx": "",
    "streetName": "Puawiliwili Pl",
    "city": "Nanakuli",
    "zipCode": 96792
  },
  {
    "tmk": 89010025,
    "description": "OSDS",
    "location": "Nanakuli",
    "housePrfx": 89,
    "houseNumbr": 1117,
    "houseSuffx": "",
    "streetName": "Puawiliwili Pl",
    "city": "Nanakuli",
    "zipCode": 96792
  },
  {
    "tmk": 89010026,
    "description": "OSDS",
    "location": "Nanakuli",
    "housePrfx": 89,
    "houseNumbr": 1120,
    "houseSuffx": "",
    "streetName": "Puawiliwili Pl",
    "city": "Nanakuli",
    "zipCode": 96792
  },
  {
    "tmk": 89010027,
    "description": "OSDS",
    "location": "Nanakuli",
    "housePrfx": 89,
    "houseNumbr": 1114,
    "houseSuffx": "",
    "streetName": "Puawiliwili Pl",
    "city": "Nanakuli",
    "zipCode": 96792
  },
  {
    "tmk": 89010028,
    "description": "OSDS",
    "location": "Nanakuli",
    "housePrfx": 89,
    "houseNumbr": 1106,
    "houseSuffx": "",
    "streetName": "Puawiliwili Pl",
    "city": "Nanakuli",
    "zipCode": 96792
  },
  {
    "tmk": 89010029,
    "description": "OSDS",
    "location": "Nanakuli",
    "housePrfx": 89,
    "houseNumbr": 1092,
    "houseSuffx": "",
    "streetName": "Puawiliwili Pl",
    "city": "Nanakuli",
    "zipCode": 96792
  },
  {
    "tmk": 89010030,
    "description": "OSDS",
    "location": "Nanakuli",
    "housePrfx": 89,
    "houseNumbr": 1082,
    "houseSuffx": "",
    "streetName": "Puawiliwili Pl",
    "city": "Nanakuli",
    "zipCode": 96792
  },
  {
    "tmk": 89010031,
    "description": "OSDS",
    "location": "Nanakuli",
    "housePrfx": 89,
    "houseNumbr": 1074,
    "houseSuffx": "",
    "streetName": "Puawiliwili Pl",
    "city": "Nanakuli",
    "zipCode": 96792
  },
  {
    "tmk": 89011005,
    "description": "OSDS",
    "location": "Nanakuli",
    "housePrfx": 89,
    "houseNumbr": 795,
    "houseSuffx": "",
    "streetName": "Ilimapapa Pl",
    "city": "Nanakuli",
    "zipCode": 96792
  },
  {
    "tmk": 89011009,
    "description": "OSDS",
    "location": "Nanakuli",
    "housePrfx": 89,
    "houseNumbr": 796,
    "houseSuffx": "",
    "streetName": "Ilimapapa Pl",
    "city": "Nanakuli",
    "zipCode": 96792
  },
  {
    "tmk": 89011010,
    "description": "OSDS",
    "location": "Nanakuli",
    "housePrfx": 89,
    "houseNumbr": 792,
    "houseSuffx": "",
    "streetName": "Ilimapapa Pl",
    "city": "Nanakuli",
    "zipCode": 96792
  },
  {
    "tmk": 89011011,
    "description": "OSDS",
    "location": "Nanakuli",
    "housePrfx": 89,
    "houseNumbr": 788,
    "houseSuffx": "",
    "streetName": "Ilimapapa Pl",
    "city": "Nanakuli",
    "zipCode": 96792
  },
  {
    "tmk": 89011015,
    "description": "OSDS",
    "location": "Nanakuli",
    "housePrfx": 89,
    "houseNumbr": 799,
    "houseSuffx": "",
    "streetName": "Laaunoni Pl",
    "city": "Nanakuli",
    "zipCode": 96792
  },
  {
    "tmk": 89011016,
    "description": "OSDS",
    "location": "Nanakuli",
    "housePrfx": 89,
    "houseNumbr": 803,
    "houseSuffx": "",
    "streetName": "Laaunoni Pl",
    "city": "Nanakuli",
    "zipCode": 96792
  },
  {
    "tmk": 89011017,
    "description": "OSDS",
    "location": "Nanakuli",
    "housePrfx": 89,
    "houseNumbr": 809,
    "houseSuffx": "",
    "streetName": "Laaunoni Pl",
    "city": "Nanakuli",
    "zipCode": 96792
  },
  {
    "tmk": 89011018,
    "description": "OSDS",
    "location": "Nanakuli",
    "housePrfx": 89,
    "houseNumbr": 813,
    "houseSuffx": "",
    "streetName": "Laaunoni Pl",
    "city": "Nanakuli",
    "zipCode": 96792
  },
  {
    "tmk": 89011019,
    "description": "OSDS",
    "location": "Nanakuli",
    "housePrfx": 89,
    "houseNumbr": 819,
    "houseSuffx": "",
    "streetName": "Laaunoni Pl",
    "city": "Nanakuli",
    "zipCode": 96792
  },
  {
    "tmk": 89011020,
    "description": "OSDS",
    "location": "Nanakuli",
    "housePrfx": 89,
    "houseNumbr": 818,
    "houseSuffx": "",
    "streetName": "Laaunoni Pl",
    "city": "Nanakuli",
    "zipCode": 96792
  },
  {
    "tmk": 89011034,
    "description": "OSDS",
    "location": "Nanakuli",
    "housePrfx": 89,
    "houseNumbr": 905,
    "houseSuffx": "",
    "streetName": "Maiapolua Pl",
    "city": "Nanakuli",
    "zipCode": 96792
  },
  {
    "tmk": 89011035,
    "description": "OSDS",
    "location": "Nanakuli",
    "housePrfx": 89,
    "houseNumbr": 913,
    "houseSuffx": "",
    "streetName": "Maiapolua Pl",
    "city": "Nanakuli",
    "zipCode": 96792
  },
  {
    "tmk": 89011036,
    "description": "OSDS",
    "location": "Nanakuli",
    "housePrfx": 89,
    "houseNumbr": 921,
    "houseSuffx": "",
    "streetName": "Maiapolua Pl",
    "city": "Nanakuli",
    "zipCode": 96792
  },
  {
    "tmk": 89011037,
    "description": "OSDS",
    "location": "Nanakuli",
    "housePrfx": 89,
    "houseNumbr": 929,
    "houseSuffx": "",
    "streetName": "Maiapolua Pl",
    "city": "Nanakuli",
    "zipCode": 96792
  },
  {
    "tmk": 89011038,
    "description": "OSDS",
    "location": "Nanakuli",
    "housePrfx": 89,
    "houseNumbr": 920,
    "houseSuffx": "",
    "streetName": "Maiapolua Pl",
    "city": "Nanakuli",
    "zipCode": 96792
  },
  {
    "tmk": 89011039,
    "description": "OSDS",
    "location": "Nanakuli",
    "housePrfx": 89,
    "houseNumbr": 912,
    "houseSuffx": "",
    "streetName": "Maiapolua Pl",
    "city": "Nanakuli",
    "zipCode": 96792
  },
  {
    "tmk": 89011040,
    "description": "OSDS",
    "location": "Nanakuli",
    "housePrfx": 89,
    "houseNumbr": 904,
    "houseSuffx": "",
    "streetName": "Maiapolua Pl",
    "city": "Nanakuli",
    "zipCode": 96792
  },
  {
    "tmk": 89011041,
    "description": "OSDS",
    "location": "Nanakuli",
    "housePrfx": 89,
    "houseNumbr": 899,
    "houseSuffx": "",
    "streetName": "Nanakuli Ave",
    "city": "Nanakuli",
    "zipCode": 96792
  }
]